[
  {
    "type": "S",
    "continent_code": 1,
    "continent_name": "Europa",
    "area_code": 11,
    "area_name": "Unione europea",
    "istat_code": 100,
    "name": "Italia",
    "name_en": "Italy",
    "min_code": "100",
    "at_code": "n.d.",
    "unsd_m49_code": "380",
    "iso_code": "IT",
    "iso3_code": "ITA"
  },
  {
    "type": "S",
    "continent_code": 1,
    "continent_name": "Europa",
    "area_code": 12,
    "area_name": "Europa centro orientale",
    "istat_code": 201,
    "name": "Albania",
    "name_en": "Albania",
    "min_code": "201",
    "at_code": "Z100",
    "unsd_m49_code": "008",
    "iso_code": "AL",
    "iso3_code": "ALB"
  },
  {
    "type": "S",
    "continent_code": 1,
    "continent_name": "Europa",
    "area_code": 13,
    "area_name": "Altri paesi europei",
    "istat_code": 202,
    "name": "Andorra",
    "name_en": "Andorra",
    "min_code": "202",
    "at_code": "Z101",
    "unsd_m49_code": "020",
    "iso_code": "AD",
    "iso3_code": "AND"
  },
  {
    "type": "S",
    "continent_code": 1,
    "continent_name": "Europa",
    "area_code": 11,
    "area_name": "Unione europea",
    "istat_code": 203,
    "name": "Austria",
    "name_en": "Austria",
    "min_code": "203",
    "at_code": "Z102",
    "unsd_m49_code": "040",
    "iso_code": "AT",
    "iso3_code": "AUT"
  },
  {
    "type": "S",
    "continent_code": 1,
    "continent_name": "Europa",
    "area_code": 11,
    "area_name": "Unione europea",
    "istat_code": 206,
    "name": "Belgio",
    "name_en": "Belgium",
    "min_code": "206",
    "at_code": "Z103",
    "unsd_m49_code": "056",
    "iso_code": "BE",
    "iso3_code": "BEL"
  },
  {
    "type": "S",
    "continent_code": 1,
    "continent_name": "Europa",
    "area_code": 11,
    "area_name": "Unione europea",
    "istat_code": 209,
    "name": "Bulgaria",
    "name_en": "Bulgaria",
    "min_code": "209",
    "at_code": "Z104",
    "unsd_m49_code": "100",
    "iso_code": "BG",
    "iso3_code": "BGR"
  },
  {
    "type": "S",
    "continent_code": 1,
    "continent_name": "Europa",
    "area_code": 11,
    "area_name": "Unione europea",
    "istat_code": 212,
    "name": "Danimarca",
    "name_en": "Denmark",
    "min_code": "212",
    "at_code": "Z107",
    "unsd_m49_code": "208",
    "iso_code": "DK",
    "iso3_code": "DNK"
  },
  {
    "type": "S",
    "continent_code": 1,
    "continent_name": "Europa",
    "area_code": 11,
    "area_name": "Unione europea",
    "istat_code": 214,
    "name": "Finlandia",
    "name_en": "Finland",
    "min_code": "214",
    "at_code": "Z109",
    "unsd_m49_code": "246",
    "iso_code": "FI",
    "iso3_code": "FIN"
  },
  {
    "type": "S",
    "continent_code": 1,
    "continent_name": "Europa",
    "area_code": 11,
    "area_name": "Unione europea",
    "istat_code": 215,
    "name": "Francia",
    "name_en": "France",
    "min_code": "215",
    "at_code": "Z110",
    "unsd_m49_code": "250",
    "iso_code": "FR",
    "iso3_code": "FRA"
  },
  {
    "type": "S",
    "continent_code": 1,
    "continent_name": "Europa",
    "area_code": 11,
    "area_name": "Unione europea",
    "istat_code": 216,
    "name": "Germania",
    "name_en": "Germany",
    "min_code": "216",
    "at_code": "Z112",
    "unsd_m49_code": "276",
    "iso_code": "DE",
    "iso3_code": "DEU"
  },
  {
    "type": "S",
    "continent_code": 1,
    "continent_name": "Europa",
    "area_code": 13,
    "area_name": "Altri paesi europei",
    "istat_code": 219,
    "name": "Regno Unito",
    "name_en": "United Kingdom",
    "min_code": "219",
    "at_code": "Z114",
    "unsd_m49_code": "826",
    "iso_code": "UK",
    "iso3_code": "GBR"
  },
  {
    "type": "S",
    "continent_code": 1,
    "continent_name": "Europa",
    "area_code": 11,
    "area_name": "Unione europea",
    "istat_code": 220,
    "name": "Grecia",
    "name_en": "Greece",
    "min_code": "220",
    "at_code": "Z115",
    "unsd_m49_code": "300",
    "iso_code": "GR",
    "iso3_code": "GRC"
  },
  {
    "type": "S",
    "continent_code": 1,
    "continent_name": "Europa",
    "area_code": 11,
    "area_name": "Unione europea",
    "istat_code": 221,
    "name": "Irlanda",
    "name_en": "Ireland",
    "min_code": "221",
    "at_code": "Z116",
    "unsd_m49_code": "372",
    "iso_code": "IE",
    "iso3_code": "IRL"
  },
  {
    "type": "S",
    "continent_code": 1,
    "continent_name": "Europa",
    "area_code": 13,
    "area_name": "Altri paesi europei",
    "istat_code": 223,
    "name": "Islanda",
    "name_en": "Iceland",
    "min_code": "223",
    "at_code": "Z117",
    "unsd_m49_code": "352",
    "iso_code": "IS",
    "iso3_code": "ISL"
  },
  {
    "type": "S",
    "continent_code": 1,
    "continent_name": "Europa",
    "area_code": 13,
    "area_name": "Altri paesi europei",
    "istat_code": 225,
    "name": "Liechtenstein",
    "name_en": "Liechtenstein",
    "min_code": "225",
    "at_code": "Z119",
    "unsd_m49_code": "438",
    "iso_code": "LI",
    "iso3_code": "LIE"
  },
  {
    "type": "S",
    "continent_code": 1,
    "continent_name": "Europa",
    "area_code": 11,
    "area_name": "Unione europea",
    "istat_code": 226,
    "name": "Lussemburgo",
    "name_en": "Luxembourg",
    "min_code": "226",
    "at_code": "Z120",
    "unsd_m49_code": "442",
    "iso_code": "LU",
    "iso3_code": "LUX"
  },
  {
    "type": "S",
    "continent_code": 1,
    "continent_name": "Europa",
    "area_code": 11,
    "area_name": "Unione europea",
    "istat_code": 227,
    "name": "Malta",
    "name_en": "Malta",
    "min_code": "227",
    "at_code": "Z121",
    "unsd_m49_code": "470",
    "iso_code": "MT",
    "iso3_code": "MLT"
  },
  {
    "type": "S",
    "continent_code": 1,
    "continent_name": "Europa",
    "area_code": 13,
    "area_name": "Altri paesi europei",
    "istat_code": 229,
    "name": "Monaco",
    "name_en": "Monaco",
    "min_code": "229",
    "at_code": "Z123",
    "unsd_m49_code": "492",
    "iso_code": "MC",
    "iso3_code": "MCO"
  },
  {
    "type": "S",
    "continent_code": 1,
    "continent_name": "Europa",
    "area_code": 13,
    "area_name": "Altri paesi europei",
    "istat_code": 231,
    "name": "Norvegia",
    "name_en": "Norway",
    "min_code": "231",
    "at_code": "Z125",
    "unsd_m49_code": "578",
    "iso_code": "NO",
    "iso3_code": "NOR"
  },
  {
    "type": "S",
    "continent_code": 1,
    "continent_name": "Europa",
    "area_code": 11,
    "area_name": "Unione europea",
    "istat_code": 232,
    "name": "Paesi Bassi",
    "name_en": "Netherlands",
    "min_code": "232",
    "at_code": "Z126",
    "unsd_m49_code": "528",
    "iso_code": "NL",
    "iso3_code": "NLD"
  },
  {
    "type": "S",
    "continent_code": 1,
    "continent_name": "Europa",
    "area_code": 11,
    "area_name": "Unione europea",
    "istat_code": 233,
    "name": "Polonia",
    "name_en": "Poland",
    "min_code": "233",
    "at_code": "Z127",
    "unsd_m49_code": "616",
    "iso_code": "PL",
    "iso3_code": "POL"
  },
  {
    "type": "S",
    "continent_code": 1,
    "continent_name": "Europa",
    "area_code": 11,
    "area_name": "Unione europea",
    "istat_code": 234,
    "name": "Portogallo",
    "name_en": "Portugal",
    "min_code": "234",
    "at_code": "Z128",
    "unsd_m49_code": "620",
    "iso_code": "PT",
    "iso3_code": "PRT"
  },
  {
    "type": "S",
    "continent_code": 1,
    "continent_name": "Europa",
    "area_code": 11,
    "area_name": "Unione europea",
    "istat_code": 235,
    "name": "Romania",
    "name_en": "Romania",
    "min_code": "235",
    "at_code": "Z129",
    "unsd_m49_code": "642",
    "iso_code": "RO",
    "iso3_code": "ROU"
  },
  {
    "type": "S",
    "continent_code": 1,
    "continent_name": "Europa",
    "area_code": 13,
    "area_name": "Altri paesi europei",
    "istat_code": 236,
    "name": "San Marino",
    "name_en": "San Marino",
    "min_code": "236",
    "at_code": "Z130",
    "unsd_m49_code": "674",
    "iso_code": "SM",
    "iso3_code": "SMR"
  },
  {
    "type": "S",
    "continent_code": 1,
    "continent_name": "Europa",
    "area_code": 11,
    "area_name": "Unione europea",
    "istat_code": 239,
    "name": "Spagna",
    "name_en": "Spain",
    "min_code": "239",
    "at_code": "Z131",
    "unsd_m49_code": "724",
    "iso_code": "ES",
    "iso3_code": "ESP"
  },
  {
    "type": "S",
    "continent_code": 1,
    "continent_name": "Europa",
    "area_code": 11,
    "area_name": "Unione europea",
    "istat_code": 240,
    "name": "Svezia",
    "name_en": "Sweden",
    "min_code": "240",
    "at_code": "Z132",
    "unsd_m49_code": "752",
    "iso_code": "SE",
    "iso3_code": "SWE"
  },
  {
    "type": "S",
    "continent_code": 1,
    "continent_name": "Europa",
    "area_code": 13,
    "area_name": "Altri paesi europei",
    "istat_code": 241,
    "name": "Svizzera",
    "name_en": "Switzerland",
    "min_code": "241",
    "at_code": "Z133",
    "unsd_m49_code": "756",
    "iso_code": "CH",
    "iso3_code": "CHE"
  },
  {
    "type": "S",
    "continent_code": 1,
    "continent_name": "Europa",
    "area_code": 12,
    "area_name": "Europa centro orientale",
    "istat_code": 243,
    "name": "Ucraina",
    "name_en": "Ukraine",
    "min_code": "243",
    "at_code": "Z138",
    "unsd_m49_code": "804",
    "iso_code": "UA",
    "iso3_code": "UKR"
  },
  {
    "type": "S",
    "continent_code": 1,
    "continent_name": "Europa",
    "area_code": 11,
    "area_name": "Unione europea",
    "istat_code": 244,
    "name": "Ungheria",
    "name_en": "Hungary",
    "min_code": "244",
    "at_code": "Z134",
    "unsd_m49_code": "348",
    "iso_code": "HU",
    "iso3_code": "HUN"
  },
  {
    "type": "S",
    "continent_code": 1,
    "continent_name": "Europa",
    "area_code": 12,
    "area_name": "Europa centro orientale",
    "istat_code": 245,
    "name": "Federazione russa",
    "name_en": "Russian Federation",
    "min_code": "245",
    "at_code": "Z154",
    "unsd_m49_code": "643",
    "iso_code": "RU",
    "iso3_code": "RUS"
  },
  {
    "type": "S",
    "continent_code": 1,
    "continent_name": "Europa",
    "area_code": 13,
    "area_name": "Altri paesi europei",
    "istat_code": 246,
    "name": "Stato della Città del Vaticano",
    "name_en": "Vatican City State",
    "min_code": "246",
    "at_code": "Z106",
    "unsd_m49_code": "336",
    "iso_code": "VA",
    "iso3_code": "VAT"
  },
  {
    "type": "S",
    "continent_code": 1,
    "continent_name": "Europa",
    "area_code": 11,
    "area_name": "Unione europea",
    "istat_code": 247,
    "name": "Estonia",
    "name_en": "Estonia",
    "min_code": "247",
    "at_code": "Z144",
    "unsd_m49_code": "233",
    "iso_code": "EE",
    "iso3_code": "EST"
  },
  {
    "type": "S",
    "continent_code": 1,
    "continent_name": "Europa",
    "area_code": 11,
    "area_name": "Unione europea",
    "istat_code": 248,
    "name": "Lettonia",
    "name_en": "Latvia",
    "min_code": "248",
    "at_code": "Z145",
    "unsd_m49_code": "428",
    "iso_code": "LV",
    "iso3_code": "LVA"
  },
  {
    "type": "S",
    "continent_code": 1,
    "continent_name": "Europa",
    "area_code": 11,
    "area_name": "Unione europea",
    "istat_code": 249,
    "name": "Lituania",
    "name_en": "Lithuania",
    "min_code": "249",
    "at_code": "Z146",
    "unsd_m49_code": "440",
    "iso_code": "LT",
    "iso3_code": "LTU"
  },
  {
    "type": "S",
    "continent_code": 1,
    "continent_name": "Europa",
    "area_code": 11,
    "area_name": "Unione europea",
    "istat_code": 250,
    "name": "Croazia",
    "name_en": "Croatia",
    "min_code": "250",
    "at_code": "Z149",
    "unsd_m49_code": "191",
    "iso_code": "HR",
    "iso3_code": "HRV"
  },
  {
    "type": "S",
    "continent_code": 1,
    "continent_name": "Europa",
    "area_code": 11,
    "area_name": "Unione europea",
    "istat_code": 251,
    "name": "Slovenia",
    "name_en": "Slovenia",
    "min_code": "251",
    "at_code": "Z150",
    "unsd_m49_code": "705",
    "iso_code": "SI",
    "iso3_code": "SVN"
  },
  {
    "type": "S",
    "continent_code": 1,
    "continent_name": "Europa",
    "area_code": 12,
    "area_name": "Europa centro orientale",
    "istat_code": 252,
    "name": "Bosnia-Erzegovina",
    "name_en": "Bosnia and Herzegovina",
    "min_code": "252",
    "at_code": "Z153",
    "unsd_m49_code": "070",
    "iso_code": "BA",
    "iso3_code": "BIH"
  },
  {
    "type": "S",
    "continent_code": 1,
    "continent_name": "Europa",
    "area_code": 12,
    "area_name": "Europa centro orientale",
    "istat_code": 253,
    "name": "Macedonia del Nord",
    "name_en": "North Macedonia",
    "min_code": "253",
    "at_code": "Z148",
    "unsd_m49_code": "807",
    "iso_code": "MK",
    "iso3_code": "MKD"
  },
  {
    "type": "S",
    "continent_code": 1,
    "continent_name": "Europa",
    "area_code": 12,
    "area_name": "Europa centro orientale",
    "istat_code": 254,
    "name": "Moldova",
    "name_en": "Moldova",
    "min_code": "254",
    "at_code": "Z140",
    "unsd_m49_code": "498",
    "iso_code": "MD",
    "iso3_code": "MDA"
  },
  {
    "type": "S",
    "continent_code": 1,
    "continent_name": "Europa",
    "area_code": 11,
    "area_name": "Unione europea",
    "istat_code": 255,
    "name": "Slovacchia",
    "name_en": "Slovakia",
    "min_code": "255",
    "at_code": "Z155",
    "unsd_m49_code": "703",
    "iso_code": "SK",
    "iso3_code": "SVK"
  },
  {
    "type": "S",
    "continent_code": 1,
    "continent_name": "Europa",
    "area_code": 12,
    "area_name": "Europa centro orientale",
    "istat_code": 256,
    "name": "Bielorussia",
    "name_en": "Belarus",
    "min_code": "256",
    "at_code": "Z139",
    "unsd_m49_code": "112",
    "iso_code": "BY",
    "iso3_code": "BLR"
  },
  {
    "type": "S",
    "continent_code": 1,
    "continent_name": "Europa",
    "area_code": 11,
    "area_name": "Unione europea",
    "istat_code": 257,
    "name": "Repubblica ceca",
    "name_en": "Czech Republic",
    "min_code": "257",
    "at_code": "Z156",
    "unsd_m49_code": "203",
    "iso_code": "CZ",
    "iso3_code": "CZE"
  },
  {
    "type": "S",
    "continent_code": 1,
    "continent_name": "Europa",
    "area_code": 12,
    "area_name": "Europa centro orientale",
    "istat_code": 270,
    "name": "Montenegro",
    "name_en": "Montenegro",
    "min_code": "270",
    "at_code": "Z159",
    "unsd_m49_code": "499",
    "iso_code": "ME",
    "iso3_code": "MNE"
  },
  {
    "type": "S",
    "continent_code": 1,
    "continent_name": "Europa",
    "area_code": 12,
    "area_name": "Europa centro orientale",
    "istat_code": 271,
    "name": "Serbia",
    "name_en": "Serbia",
    "min_code": "271",
    "at_code": "Z158",
    "unsd_m49_code": "688",
    "iso_code": "RS",
    "iso3_code": "SRB"
  },
  {
    "type": "S",
    "continent_code": 1,
    "continent_name": "Europa",
    "area_code": 12,
    "area_name": "Europa centro orientale",
    "istat_code": 272,
    "name": "Kosovo",
    "name_en": "Kosovo",
    "min_code": "272",
    "at_code": "Z160",
    "unsd_m49_code": "n.d.",
    "iso_code": "n.d.",
    "iso3_code": "KOS"
  },
  {
    "type": "S",
    "continent_code": 3,
    "continent_name": "Asia",
    "area_code": 32,
    "area_name": "Asia centro meridionale",
    "istat_code": 301,
    "name": "Afghanistan",
    "name_en": "Afghanistan",
    "min_code": "301",
    "at_code": "Z200",
    "unsd_m49_code": "004",
    "iso_code": "AF",
    "iso3_code": "AFG"
  },
  {
    "type": "S",
    "continent_code": 3,
    "continent_name": "Asia",
    "area_code": 31,
    "area_name": "Asia occidentale",
    "istat_code": 302,
    "name": "Arabia Saudita",
    "name_en": "Saudi Arabia",
    "min_code": "302",
    "at_code": "Z203",
    "unsd_m49_code": "682",
    "iso_code": "SA",
    "iso3_code": "SAU"
  },
  {
    "type": "S",
    "continent_code": 3,
    "continent_name": "Asia",
    "area_code": 31,
    "area_name": "Asia occidentale",
    "istat_code": 304,
    "name": "Bahrein",
    "name_en": "Bahrain",
    "min_code": "304",
    "at_code": "Z204",
    "unsd_m49_code": "048",
    "iso_code": "BH",
    "iso3_code": "BHR"
  },
  {
    "type": "S",
    "continent_code": 3,
    "continent_name": "Asia",
    "area_code": 32,
    "area_name": "Asia centro meridionale",
    "istat_code": 305,
    "name": "Bangladesh",
    "name_en": "Bangladesh",
    "min_code": "305",
    "at_code": "Z249",
    "unsd_m49_code": "050",
    "iso_code": "BD",
    "iso3_code": "BGD"
  },
  {
    "type": "S",
    "continent_code": 3,
    "continent_name": "Asia",
    "area_code": 32,
    "area_name": "Asia centro meridionale",
    "istat_code": 306,
    "name": "Bhutan",
    "name_en": "Bhutan",
    "min_code": "306",
    "at_code": "Z205",
    "unsd_m49_code": "064",
    "iso_code": "BT",
    "iso3_code": "BTN"
  },
  {
    "type": "S",
    "continent_code": 3,
    "continent_name": "Asia",
    "area_code": 33,
    "area_name": "Asia orientale",
    "istat_code": 307,
    "name": "Myanmar\/Birmania",
    "name_en": "Myanmar\/Burma",
    "min_code": "307",
    "at_code": "Z206",
    "unsd_m49_code": "104",
    "iso_code": "MM",
    "iso3_code": "MMR"
  },
  {
    "type": "S",
    "continent_code": 3,
    "continent_name": "Asia",
    "area_code": 33,
    "area_name": "Asia orientale",
    "istat_code": 309,
    "name": "Brunei Darussalam",
    "name_en": "Brunei Darussalam",
    "min_code": "309",
    "at_code": "Z207",
    "unsd_m49_code": "096",
    "iso_code": "BN",
    "iso3_code": "BRN"
  },
  {
    "type": "S",
    "continent_code": 3,
    "continent_name": "Asia",
    "area_code": 33,
    "area_name": "Asia orientale",
    "istat_code": 310,
    "name": "Cambogia",
    "name_en": "Cambodia",
    "min_code": "310",
    "at_code": "Z208",
    "unsd_m49_code": "116",
    "iso_code": "KH",
    "iso3_code": "KHM"
  },
  {
    "type": "S",
    "continent_code": 3,
    "continent_name": "Asia",
    "area_code": 32,
    "area_name": "Asia centro meridionale",
    "istat_code": 311,
    "name": "Sri Lanka",
    "name_en": "Sri Lanka",
    "min_code": "311",
    "at_code": "Z209",
    "unsd_m49_code": "144",
    "iso_code": "LK",
    "iso3_code": "LKA"
  },
  {
    "type": "S",
    "continent_code": 3,
    "continent_name": "Asia",
    "area_code": 33,
    "area_name": "Asia orientale",
    "istat_code": 314,
    "name": "Cina",
    "name_en": "China",
    "min_code": "314",
    "at_code": "Z210",
    "unsd_m49_code": "156",
    "iso_code": "CN",
    "iso3_code": "CHN"
  },
  {
    "type": "S",
    "continent_code": 1,
    "continent_name": "Europa",
    "area_code": 11,
    "area_name": "Unione europea",
    "istat_code": 315,
    "name": "Cipro",
    "name_en": "Cyprus",
    "min_code": "315",
    "at_code": "Z211",
    "unsd_m49_code": "196",
    "iso_code": "CY",
    "iso3_code": "CYP"
  },
  {
    "type": "S",
    "continent_code": 3,
    "continent_name": "Asia",
    "area_code": 33,
    "area_name": "Asia orientale",
    "istat_code": 319,
    "name": "Corea del Nord",
    "name_en": "North Korea",
    "min_code": "319",
    "at_code": "Z214",
    "unsd_m49_code": "408",
    "iso_code": "KP",
    "iso3_code": "PRK"
  },
  {
    "type": "S",
    "continent_code": 3,
    "continent_name": "Asia",
    "area_code": 33,
    "area_name": "Asia orientale",
    "istat_code": 320,
    "name": "Corea del Sud",
    "name_en": "South Korea",
    "min_code": "320",
    "at_code": "Z213",
    "unsd_m49_code": "410",
    "iso_code": "KR",
    "iso3_code": "KOR"
  },
  {
    "type": "S",
    "continent_code": 3,
    "continent_name": "Asia",
    "area_code": 31,
    "area_name": "Asia occidentale",
    "istat_code": 322,
    "name": "Emirati Arabi Uniti",
    "name_en": "United Arab Emirates",
    "min_code": "322",
    "at_code": "Z215",
    "unsd_m49_code": "784",
    "iso_code": "AE",
    "iso3_code": "ARE"
  },
  {
    "type": "S",
    "continent_code": 3,
    "continent_name": "Asia",
    "area_code": 33,
    "area_name": "Asia orientale",
    "istat_code": 323,
    "name": "Filippine",
    "name_en": "Philippines",
    "min_code": "323",
    "at_code": "Z216",
    "unsd_m49_code": "608",
    "iso_code": "PH",
    "iso3_code": "PHL"
  },
  {
    "type": "S",
    "continent_code": 3,
    "continent_name": "Asia",
    "area_code": 31,
    "area_name": "Asia occidentale",
    "istat_code": 324,
    "name": "Palestina",
    "name_en": "Palestine",
    "min_code": "324",
    "at_code": "Z161",
    "unsd_m49_code": "275",
    "iso_code": "PS",
    "iso3_code": "PSE"
  },
  {
    "type": "S",
    "continent_code": 3,
    "continent_name": "Asia",
    "area_code": 33,
    "area_name": "Asia orientale",
    "istat_code": 326,
    "name": "Giappone",
    "name_en": "Japan",
    "min_code": "326",
    "at_code": "Z219",
    "unsd_m49_code": "392",
    "iso_code": "JP",
    "iso3_code": "JPN"
  },
  {
    "type": "S",
    "continent_code": 3,
    "continent_name": "Asia",
    "area_code": 31,
    "area_name": "Asia occidentale",
    "istat_code": 327,
    "name": "Giordania",
    "name_en": "Jordan",
    "min_code": "327",
    "at_code": "Z220",
    "unsd_m49_code": "400",
    "iso_code": "JO",
    "iso3_code": "JOR"
  },
  {
    "type": "S",
    "continent_code": 3,
    "continent_name": "Asia",
    "area_code": 32,
    "area_name": "Asia centro meridionale",
    "istat_code": 330,
    "name": "India",
    "name_en": "India",
    "min_code": "330",
    "at_code": "Z222",
    "unsd_m49_code": "356",
    "iso_code": "IN",
    "iso3_code": "IND"
  },
  {
    "type": "S",
    "continent_code": 3,
    "continent_name": "Asia",
    "area_code": 33,
    "area_name": "Asia orientale",
    "istat_code": 331,
    "name": "Indonesia",
    "name_en": "Indonesia",
    "min_code": "331",
    "at_code": "Z223",
    "unsd_m49_code": "360",
    "iso_code": "ID",
    "iso3_code": "IDN"
  },
  {
    "type": "S",
    "continent_code": 3,
    "continent_name": "Asia",
    "area_code": 31,
    "area_name": "Asia occidentale",
    "istat_code": 332,
    "name": "Iran",
    "name_en": "Iran",
    "min_code": "332",
    "at_code": "Z224",
    "unsd_m49_code": "364",
    "iso_code": "IR",
    "iso3_code": "IRN"
  },
  {
    "type": "S",
    "continent_code": 3,
    "continent_name": "Asia",
    "area_code": 31,
    "area_name": "Asia occidentale",
    "istat_code": 333,
    "name": "Iraq",
    "name_en": "Iraq",
    "min_code": "333",
    "at_code": "Z225",
    "unsd_m49_code": "368",
    "iso_code": "IQ",
    "iso3_code": "IRQ"
  },
  {
    "type": "S",
    "continent_code": 3,
    "continent_name": "Asia",
    "area_code": 31,
    "area_name": "Asia occidentale",
    "istat_code": 334,
    "name": "Israele",
    "name_en": "Israel",
    "min_code": "334",
    "at_code": "Z226",
    "unsd_m49_code": "376",
    "iso_code": "IL",
    "iso3_code": "ISR"
  },
  {
    "type": "S",
    "continent_code": 3,
    "continent_name": "Asia",
    "area_code": 31,
    "area_name": "Asia occidentale",
    "istat_code": 335,
    "name": "Kuwait",
    "name_en": "Kuwait",
    "min_code": "335",
    "at_code": "Z227",
    "unsd_m49_code": "414",
    "iso_code": "KW",
    "iso3_code": "KWT"
  },
  {
    "type": "S",
    "continent_code": 3,
    "continent_name": "Asia",
    "area_code": 33,
    "area_name": "Asia orientale",
    "istat_code": 336,
    "name": "Laos",
    "name_en": "Laos",
    "min_code": "336",
    "at_code": "Z228",
    "unsd_m49_code": "418",
    "iso_code": "LA",
    "iso3_code": "LAO"
  },
  {
    "type": "S",
    "continent_code": 3,
    "continent_name": "Asia",
    "area_code": 31,
    "area_name": "Asia occidentale",
    "istat_code": 337,
    "name": "Libano",
    "name_en": "Lebanon",
    "min_code": "337",
    "at_code": "Z229",
    "unsd_m49_code": "422",
    "iso_code": "LB",
    "iso3_code": "LBN"
  },
  {
    "type": "S",
    "continent_code": 3,
    "continent_name": "Asia",
    "area_code": 33,
    "area_name": "Asia orientale",
    "istat_code": 338,
    "name": "Timor Leste",
    "name_en": "Timor Leste",
    "min_code": "338",
    "at_code": "Z242",
    "unsd_m49_code": "626",
    "iso_code": "TL",
    "iso3_code": "TLS"
  },
  {
    "type": "S",
    "continent_code": 3,
    "continent_name": "Asia",
    "area_code": 32,
    "area_name": "Asia centro meridionale",
    "istat_code": 339,
    "name": "Maldive",
    "name_en": "Maldives",
    "min_code": "339",
    "at_code": "Z232",
    "unsd_m49_code": "462",
    "iso_code": "MV",
    "iso3_code": "MDV"
  },
  {
    "type": "S",
    "continent_code": 3,
    "continent_name": "Asia",
    "area_code": 33,
    "area_name": "Asia orientale",
    "istat_code": 340,
    "name": "Malaysia",
    "name_en": "Malaysia",
    "min_code": "340",
    "at_code": "Z247",
    "unsd_m49_code": "458",
    "iso_code": "MY",
    "iso3_code": "MYS"
  },
  {
    "type": "S",
    "continent_code": 3,
    "continent_name": "Asia",
    "area_code": 33,
    "area_name": "Asia orientale",
    "istat_code": 341,
    "name": "Mongolia",
    "name_en": "Mongolia",
    "min_code": "341",
    "at_code": "Z233",
    "unsd_m49_code": "496",
    "iso_code": "MN",
    "iso3_code": "MNG"
  },
  {
    "type": "S",
    "continent_code": 3,
    "continent_name": "Asia",
    "area_code": 32,
    "area_name": "Asia centro meridionale",
    "istat_code": 342,
    "name": "Nepal",
    "name_en": "Nepal",
    "min_code": "342",
    "at_code": "Z234",
    "unsd_m49_code": "524",
    "iso_code": "NP",
    "iso3_code": "NPL"
  },
  {
    "type": "S",
    "continent_code": 3,
    "continent_name": "Asia",
    "area_code": 31,
    "area_name": "Asia occidentale",
    "istat_code": 343,
    "name": "Oman",
    "name_en": "Oman",
    "min_code": "343",
    "at_code": "Z235",
    "unsd_m49_code": "512",
    "iso_code": "OM",
    "iso3_code": "OMN"
  },
  {
    "type": "S",
    "continent_code": 3,
    "continent_name": "Asia",
    "area_code": 32,
    "area_name": "Asia centro meridionale",
    "istat_code": 344,
    "name": "Pakistan",
    "name_en": "Pakistan",
    "min_code": "344",
    "at_code": "Z236",
    "unsd_m49_code": "586",
    "iso_code": "PK",
    "iso3_code": "PAK"
  },
  {
    "type": "S",
    "continent_code": 3,
    "continent_name": "Asia",
    "area_code": 31,
    "area_name": "Asia occidentale",
    "istat_code": 345,
    "name": "Qatar",
    "name_en": "Qatar",
    "min_code": "345",
    "at_code": "Z237",
    "unsd_m49_code": "634",
    "iso_code": "QA",
    "iso3_code": "QAT"
  },
  {
    "type": "S",
    "continent_code": 3,
    "continent_name": "Asia",
    "area_code": 33,
    "area_name": "Asia orientale",
    "istat_code": 346,
    "name": "Singapore",
    "name_en": "Singapore",
    "min_code": "346",
    "at_code": "Z248",
    "unsd_m49_code": "702",
    "iso_code": "SG",
    "iso3_code": "SGP"
  },
  {
    "type": "S",
    "continent_code": 3,
    "continent_name": "Asia",
    "area_code": 31,
    "area_name": "Asia occidentale",
    "istat_code": 348,
    "name": "Siria",
    "name_en": "Syria",
    "min_code": "348",
    "at_code": "Z240",
    "unsd_m49_code": "760",
    "iso_code": "SY",
    "iso3_code": "SYR"
  },
  {
    "type": "S",
    "continent_code": 3,
    "continent_name": "Asia",
    "area_code": 33,
    "area_name": "Asia orientale",
    "istat_code": 349,
    "name": "Thailandia",
    "name_en": "Thailand",
    "min_code": "349",
    "at_code": "Z241",
    "unsd_m49_code": "764",
    "iso_code": "TH",
    "iso3_code": "THA"
  },
  {
    "type": "S",
    "continent_code": 1,
    "continent_name": "Europa",
    "area_code": 12,
    "area_name": "Europa centro orientale",
    "istat_code": 351,
    "name": "Turchia",
    "name_en": "Turkey",
    "min_code": "351",
    "at_code": "Z243",
    "unsd_m49_code": "792",
    "iso_code": "TR",
    "iso3_code": "TUR"
  },
  {
    "type": "S",
    "continent_code": 3,
    "continent_name": "Asia",
    "area_code": 33,
    "area_name": "Asia orientale",
    "istat_code": 353,
    "name": "Vietnam",
    "name_en": "Vietnam",
    "min_code": "353",
    "at_code": "Z251",
    "unsd_m49_code": "704",
    "iso_code": "VN",
    "iso3_code": "VNM"
  },
  {
    "type": "S",
    "continent_code": 3,
    "continent_name": "Asia",
    "area_code": 31,
    "area_name": "Asia occidentale",
    "istat_code": 354,
    "name": "Yemen",
    "name_en": "Yemen",
    "min_code": "354",
    "at_code": "Z246",
    "unsd_m49_code": "887",
    "iso_code": "YE",
    "iso3_code": "YEM"
  },
  {
    "type": "S",
    "continent_code": 3,
    "continent_name": "Asia",
    "area_code": 32,
    "area_name": "Asia centro meridionale",
    "istat_code": 356,
    "name": "Kazakhstan",
    "name_en": "Kazakhstan",
    "min_code": "356",
    "at_code": "Z255",
    "unsd_m49_code": "398",
    "iso_code": "KZ",
    "iso3_code": "KAZ"
  },
  {
    "type": "S",
    "continent_code": 3,
    "continent_name": "Asia",
    "area_code": 32,
    "area_name": "Asia centro meridionale",
    "istat_code": 357,
    "name": "Uzbekistan",
    "name_en": "Uzbekistan",
    "min_code": "357",
    "at_code": "Z259",
    "unsd_m49_code": "860",
    "iso_code": "UZ",
    "iso3_code": "UZB"
  },
  {
    "type": "S",
    "continent_code": 3,
    "continent_name": "Asia",
    "area_code": 31,
    "area_name": "Asia occidentale",
    "istat_code": 358,
    "name": "Armenia",
    "name_en": "Armenia",
    "min_code": "358",
    "at_code": "Z252",
    "unsd_m49_code": "051",
    "iso_code": "AM",
    "iso3_code": "ARM"
  },
  {
    "type": "S",
    "continent_code": 3,
    "continent_name": "Asia",
    "area_code": 31,
    "area_name": "Asia occidentale",
    "istat_code": 359,
    "name": "Azerbaigian",
    "name_en": "Azerbaijan",
    "min_code": "359",
    "at_code": "Z253",
    "unsd_m49_code": "031",
    "iso_code": "AZ",
    "iso3_code": "AZE"
  },
  {
    "type": "S",
    "continent_code": 3,
    "continent_name": "Asia",
    "area_code": 31,
    "area_name": "Asia occidentale",
    "istat_code": 360,
    "name": "Georgia",
    "name_en": "Georgia",
    "min_code": "360",
    "at_code": "Z254",
    "unsd_m49_code": "268",
    "iso_code": "GE",
    "iso3_code": "GEO"
  },
  {
    "type": "S",
    "continent_code": 3,
    "continent_name": "Asia",
    "area_code": 32,
    "area_name": "Asia centro meridionale",
    "istat_code": 361,
    "name": "Kirghizistan",
    "name_en": "Kyrgyzstan",
    "min_code": "361",
    "at_code": "Z256",
    "unsd_m49_code": "417",
    "iso_code": "KG",
    "iso3_code": "KGZ"
  },
  {
    "type": "S",
    "continent_code": 3,
    "continent_name": "Asia",
    "area_code": 32,
    "area_name": "Asia centro meridionale",
    "istat_code": 362,
    "name": "Tagikistan",
    "name_en": "Tajikistan",
    "min_code": "362",
    "at_code": "Z257",
    "unsd_m49_code": "762",
    "iso_code": "TJ",
    "iso3_code": "TJK"
  },
  {
    "type": "S",
    "continent_code": 3,
    "continent_name": "Asia",
    "area_code": 33,
    "area_name": "Asia orientale",
    "istat_code": 363,
    "name": "Taiwan",
    "name_en": "Taiwan",
    "min_code": "363",
    "at_code": "Z217",
    "unsd_m49_code": "n.d.",
    "iso_code": "TW",
    "iso3_code": "TWN"
  },
  {
    "type": "S",
    "continent_code": 3,
    "continent_name": "Asia",
    "area_code": 32,
    "area_name": "Asia centro meridionale",
    "istat_code": 364,
    "name": "Turkmenistan",
    "name_en": "Turkmenistan",
    "min_code": "364",
    "at_code": "Z258",
    "unsd_m49_code": "795",
    "iso_code": "TM",
    "iso3_code": "TKM"
  },
  {
    "type": "S",
    "continent_code": 2,
    "continent_name": "Africa",
    "area_code": 21,
    "area_name": "Africa settentrionale",
    "istat_code": 401,
    "name": "Algeria",
    "name_en": "Algeria",
    "min_code": "401",
    "at_code": "Z301",
    "unsd_m49_code": "012",
    "iso_code": "DZ",
    "iso3_code": "DZA"
  },
  {
    "type": "S",
    "continent_code": 2,
    "continent_name": "Africa",
    "area_code": 24,
    "area_name": "Africa centro meridionale",
    "istat_code": 402,
    "name": "Angola",
    "name_en": "Angola",
    "min_code": "402",
    "at_code": "Z302",
    "unsd_m49_code": "024",
    "iso_code": "AO",
    "iso3_code": "AGO"
  },
  {
    "type": "S",
    "continent_code": 2,
    "continent_name": "Africa",
    "area_code": 22,
    "area_name": "Africa occidentale",
    "istat_code": 404,
    "name": "Costa d'Avorio",
    "name_en": "Côte d'Ivoire",
    "min_code": "404",
    "at_code": "Z313",
    "unsd_m49_code": "384",
    "iso_code": "CI",
    "iso3_code": "CIV"
  },
  {
    "type": "S",
    "continent_code": 2,
    "continent_name": "Africa",
    "area_code": 22,
    "area_name": "Africa occidentale",
    "istat_code": 406,
    "name": "Benin",
    "name_en": "Benin",
    "min_code": "406",
    "at_code": "Z314",
    "unsd_m49_code": "204",
    "iso_code": "BJ",
    "iso3_code": "BEN"
  },
  {
    "type": "S",
    "continent_code": 2,
    "continent_name": "Africa",
    "area_code": 24,
    "area_name": "Africa centro meridionale",
    "istat_code": 408,
    "name": "Botswana",
    "name_en": "Botswana",
    "min_code": "408",
    "at_code": "Z358",
    "unsd_m49_code": "072",
    "iso_code": "BW",
    "iso3_code": "BWA"
  },
  {
    "type": "S",
    "continent_code": 2,
    "continent_name": "Africa",
    "area_code": 22,
    "area_name": "Africa occidentale",
    "istat_code": 409,
    "name": "Burkina Faso",
    "name_en": "Burkina Faso",
    "min_code": "409",
    "at_code": "Z354",
    "unsd_m49_code": "854",
    "iso_code": "BF",
    "iso3_code": "BFA"
  },
  {
    "type": "S",
    "continent_code": 2,
    "continent_name": "Africa",
    "area_code": 23,
    "area_name": "Africa orientale",
    "istat_code": 410,
    "name": "Burundi",
    "name_en": "Burundi",
    "min_code": "410",
    "at_code": "Z305",
    "unsd_m49_code": "108",
    "iso_code": "BI",
    "iso3_code": "BDI"
  },
  {
    "type": "S",
    "continent_code": 2,
    "continent_name": "Africa",
    "area_code": 24,
    "area_name": "Africa centro meridionale",
    "istat_code": 411,
    "name": "Camerun",
    "name_en": "Cameroon",
    "min_code": "411",
    "at_code": "Z306",
    "unsd_m49_code": "120",
    "iso_code": "CM",
    "iso3_code": "CMR"
  },
  {
    "type": "S",
    "continent_code": 2,
    "continent_name": "Africa",
    "area_code": 22,
    "area_name": "Africa occidentale",
    "istat_code": 413,
    "name": "Capo Verde",
    "name_en": "Cape Verde",
    "min_code": "413",
    "at_code": "Z307",
    "unsd_m49_code": "132",
    "iso_code": "CV",
    "iso3_code": "CPV"
  },
  {
    "type": "S",
    "continent_code": 2,
    "continent_name": "Africa",
    "area_code": 24,
    "area_name": "Africa centro meridionale",
    "istat_code": 414,
    "name": "Repubblica Centrafricana",
    "name_en": "Central African Republic",
    "min_code": "414",
    "at_code": "Z308",
    "unsd_m49_code": "140",
    "iso_code": "CF",
    "iso3_code": "CAF"
  },
  {
    "type": "S",
    "continent_code": 2,
    "continent_name": "Africa",
    "area_code": 24,
    "area_name": "Africa centro meridionale",
    "istat_code": 415,
    "name": "Ciad",
    "name_en": "Chad",
    "min_code": "415",
    "at_code": "Z309",
    "unsd_m49_code": "148",
    "iso_code": "TD",
    "iso3_code": "TCD"
  },
  {
    "type": "S",
    "continent_code": 2,
    "continent_name": "Africa",
    "area_code": 23,
    "area_name": "Africa orientale",
    "istat_code": 417,
    "name": "Comore",
    "name_en": "Comoros",
    "min_code": "417",
    "at_code": "Z310",
    "unsd_m49_code": "174",
    "iso_code": "KM",
    "iso3_code": "COM"
  },
  {
    "type": "S",
    "continent_code": 2,
    "continent_name": "Africa",
    "area_code": 24,
    "area_name": "Africa centro meridionale",
    "istat_code": 418,
    "name": "Congo",
    "name_en": "Congo",
    "min_code": "418",
    "at_code": "Z311",
    "unsd_m49_code": "178",
    "iso_code": "CG",
    "iso3_code": "COG"
  },
  {
    "type": "S",
    "continent_code": 2,
    "continent_name": "Africa",
    "area_code": 21,
    "area_name": "Africa settentrionale",
    "istat_code": 419,
    "name": "Egitto",
    "name_en": "Egypt",
    "min_code": "419",
    "at_code": "Z336",
    "unsd_m49_code": "818",
    "iso_code": "EG",
    "iso3_code": "EGY"
  },
  {
    "type": "S",
    "continent_code": 2,
    "continent_name": "Africa",
    "area_code": 23,
    "area_name": "Africa orientale",
    "istat_code": 420,
    "name": "Etiopia",
    "name_en": "Ethiopia",
    "min_code": "420",
    "at_code": "Z315",
    "unsd_m49_code": "231",
    "iso_code": "ET",
    "iso3_code": "ETH"
  },
  {
    "type": "S",
    "continent_code": 2,
    "continent_name": "Africa",
    "area_code": 24,
    "area_name": "Africa centro meridionale",
    "istat_code": 421,
    "name": "Gabon",
    "name_en": "Gabon",
    "min_code": "421",
    "at_code": "Z316",
    "unsd_m49_code": "266",
    "iso_code": "GA",
    "iso3_code": "GAB"
  },
  {
    "type": "S",
    "continent_code": 2,
    "continent_name": "Africa",
    "area_code": 22,
    "area_name": "Africa occidentale",
    "istat_code": 422,
    "name": "Gambia",
    "name_en": "Gambia",
    "min_code": "422",
    "at_code": "Z317",
    "unsd_m49_code": "270",
    "iso_code": "GM",
    "iso3_code": "GMB"
  },
  {
    "type": "S",
    "continent_code": 2,
    "continent_name": "Africa",
    "area_code": 22,
    "area_name": "Africa occidentale",
    "istat_code": 423,
    "name": "Ghana",
    "name_en": "Ghana",
    "min_code": "423",
    "at_code": "Z318",
    "unsd_m49_code": "288",
    "iso_code": "GH",
    "iso3_code": "GHA"
  },
  {
    "type": "S",
    "continent_code": 2,
    "continent_name": "Africa",
    "area_code": 23,
    "area_name": "Africa orientale",
    "istat_code": 424,
    "name": "Gibuti",
    "name_en": "Djibouti",
    "min_code": "424",
    "at_code": "Z361",
    "unsd_m49_code": "262",
    "iso_code": "DJ",
    "iso3_code": "DJI"
  },
  {
    "type": "S",
    "continent_code": 2,
    "continent_name": "Africa",
    "area_code": 22,
    "area_name": "Africa occidentale",
    "istat_code": 425,
    "name": "Guinea",
    "name_en": "Guinea",
    "min_code": "425",
    "at_code": "Z319",
    "unsd_m49_code": "324",
    "iso_code": "GN",
    "iso3_code": "GIN"
  },
  {
    "type": "S",
    "continent_code": 2,
    "continent_name": "Africa",
    "area_code": 22,
    "area_name": "Africa occidentale",
    "istat_code": 426,
    "name": "Guinea-Bissau",
    "name_en": "Guinea-Bissau",
    "min_code": "426",
    "at_code": "Z320",
    "unsd_m49_code": "624",
    "iso_code": "GW",
    "iso3_code": "GNB"
  },
  {
    "type": "S",
    "continent_code": 2,
    "continent_name": "Africa",
    "area_code": 24,
    "area_name": "Africa centro meridionale",
    "istat_code": 427,
    "name": "Guinea equatoriale",
    "name_en": "Equatorial Guinea",
    "min_code": "427",
    "at_code": "Z321",
    "unsd_m49_code": "226",
    "iso_code": "GQ",
    "iso3_code": "GNQ"
  },
  {
    "type": "S",
    "continent_code": 2,
    "continent_name": "Africa",
    "area_code": 23,
    "area_name": "Africa orientale",
    "istat_code": 428,
    "name": "Kenya",
    "name_en": "Kenya",
    "min_code": "428",
    "at_code": "Z322",
    "unsd_m49_code": "404",
    "iso_code": "KE",
    "iso3_code": "KEN"
  },
  {
    "type": "S",
    "continent_code": 2,
    "continent_name": "Africa",
    "area_code": 24,
    "area_name": "Africa centro meridionale",
    "istat_code": 429,
    "name": "Lesotho",
    "name_en": "Lesotho",
    "min_code": "429",
    "at_code": "Z359",
    "unsd_m49_code": "426",
    "iso_code": "LS",
    "iso3_code": "LSO"
  },
  {
    "type": "S",
    "continent_code": 2,
    "continent_name": "Africa",
    "area_code": 22,
    "area_name": "Africa occidentale",
    "istat_code": 430,
    "name": "Liberia",
    "name_en": "Liberia",
    "min_code": "430",
    "at_code": "Z325",
    "unsd_m49_code": "430",
    "iso_code": "LR",
    "iso3_code": "LBR"
  },
  {
    "type": "S",
    "continent_code": 2,
    "continent_name": "Africa",
    "area_code": 21,
    "area_name": "Africa settentrionale",
    "istat_code": 431,
    "name": "Libia",
    "name_en": "Libya",
    "min_code": "431",
    "at_code": "Z326",
    "unsd_m49_code": "434",
    "iso_code": "LY",
    "iso3_code": "LBY"
  },
  {
    "type": "S",
    "continent_code": 2,
    "continent_name": "Africa",
    "area_code": 23,
    "area_name": "Africa orientale",
    "istat_code": 432,
    "name": "Madagascar",
    "name_en": "Madagascar",
    "min_code": "432",
    "at_code": "Z327",
    "unsd_m49_code": "450",
    "iso_code": "MG",
    "iso3_code": "MDG"
  },
  {
    "type": "S",
    "continent_code": 2,
    "continent_name": "Africa",
    "area_code": 23,
    "area_name": "Africa orientale",
    "istat_code": 434,
    "name": "Malawi",
    "name_en": "Malawi",
    "min_code": "434",
    "at_code": "Z328",
    "unsd_m49_code": "454",
    "iso_code": "MW",
    "iso3_code": "MWI"
  },
  {
    "type": "S",
    "continent_code": 2,
    "continent_name": "Africa",
    "area_code": 22,
    "area_name": "Africa occidentale",
    "istat_code": 435,
    "name": "Mali",
    "name_en": "Mali",
    "min_code": "435",
    "at_code": "Z329",
    "unsd_m49_code": "466",
    "iso_code": "ML",
    "iso3_code": "MLI"
  },
  {
    "type": "S",
    "continent_code": 2,
    "continent_name": "Africa",
    "area_code": 21,
    "area_name": "Africa settentrionale",
    "istat_code": 436,
    "name": "Marocco",
    "name_en": "Morocco",
    "min_code": "436",
    "at_code": "Z330",
    "unsd_m49_code": "504",
    "iso_code": "MA",
    "iso3_code": "MAR"
  },
  {
    "type": "S",
    "continent_code": 2,
    "continent_name": "Africa",
    "area_code": 22,
    "area_name": "Africa occidentale",
    "istat_code": 437,
    "name": "Mauritania",
    "name_en": "Mauritania",
    "min_code": "437",
    "at_code": "Z331",
    "unsd_m49_code": "478",
    "iso_code": "MR",
    "iso3_code": "MRT"
  },
  {
    "type": "S",
    "continent_code": 2,
    "continent_name": "Africa",
    "area_code": 23,
    "area_name": "Africa orientale",
    "istat_code": 438,
    "name": "Maurizio",
    "name_en": "Mauritius",
    "min_code": "438",
    "at_code": "Z332",
    "unsd_m49_code": "480",
    "iso_code": "MU",
    "iso3_code": "MUS"
  },
  {
    "type": "S",
    "continent_code": 2,
    "continent_name": "Africa",
    "area_code": 23,
    "area_name": "Africa orientale",
    "istat_code": 440,
    "name": "Mozambico",
    "name_en": "Mozambique",
    "min_code": "440",
    "at_code": "Z333",
    "unsd_m49_code": "508",
    "iso_code": "MZ",
    "iso3_code": "MOZ"
  },
  {
    "type": "S",
    "continent_code": 2,
    "continent_name": "Africa",
    "area_code": 24,
    "area_name": "Africa centro meridionale",
    "istat_code": 441,
    "name": "Namibia",
    "name_en": "Namibia",
    "min_code": "441",
    "at_code": "Z300",
    "unsd_m49_code": "516",
    "iso_code": "NA",
    "iso3_code": "NAM"
  },
  {
    "type": "S",
    "continent_code": 2,
    "continent_name": "Africa",
    "area_code": 22,
    "area_name": "Africa occidentale",
    "istat_code": 442,
    "name": "Niger",
    "name_en": "Niger",
    "min_code": "442",
    "at_code": "Z334",
    "unsd_m49_code": "562",
    "iso_code": "NE",
    "iso3_code": "NER"
  },
  {
    "type": "S",
    "continent_code": 2,
    "continent_name": "Africa",
    "area_code": 22,
    "area_name": "Africa occidentale",
    "istat_code": 443,
    "name": "Nigeria",
    "name_en": "Nigeria",
    "min_code": "443",
    "at_code": "Z335",
    "unsd_m49_code": "566",
    "iso_code": "NG",
    "iso3_code": "NGA"
  },
  {
    "type": "S",
    "continent_code": 2,
    "continent_name": "Africa",
    "area_code": 23,
    "area_name": "Africa orientale",
    "istat_code": 446,
    "name": "Ruanda",
    "name_en": "Rwanda",
    "min_code": "446",
    "at_code": "Z338",
    "unsd_m49_code": "646",
    "iso_code": "RW",
    "iso3_code": "RWA"
  },
  {
    "type": "S",
    "continent_code": 2,
    "continent_name": "Africa",
    "area_code": 24,
    "area_name": "Africa centro meridionale",
    "istat_code": 448,
    "name": "Sao Tomé e Principe",
    "name_en": "Sao Tome and Principe",
    "min_code": "448",
    "at_code": "Z341",
    "unsd_m49_code": "678",
    "iso_code": "ST",
    "iso3_code": "STP"
  },
  {
    "type": "S",
    "continent_code": 2,
    "continent_name": "Africa",
    "area_code": 23,
    "area_name": "Africa orientale",
    "istat_code": 449,
    "name": "Seychelles",
    "name_en": "Seychelles",
    "min_code": "449",
    "at_code": "Z342",
    "unsd_m49_code": "690",
    "iso_code": "SC",
    "iso3_code": "SYC"
  },
  {
    "type": "S",
    "continent_code": 2,
    "continent_name": "Africa",
    "area_code": 22,
    "area_name": "Africa occidentale",
    "istat_code": 450,
    "name": "Senegal",
    "name_en": "Senegal",
    "min_code": "450",
    "at_code": "Z343",
    "unsd_m49_code": "686",
    "iso_code": "SN",
    "iso3_code": "SEN"
  },
  {
    "type": "S",
    "continent_code": 2,
    "continent_name": "Africa",
    "area_code": 22,
    "area_name": "Africa occidentale",
    "istat_code": 451,
    "name": "Sierra Leone",
    "name_en": "Sierra Leone",
    "min_code": "451",
    "at_code": "Z344",
    "unsd_m49_code": "694",
    "iso_code": "SL",
    "iso3_code": "SLE"
  },
  {
    "type": "S",
    "continent_code": 2,
    "continent_name": "Africa",
    "area_code": 23,
    "area_name": "Africa orientale",
    "istat_code": 453,
    "name": "Somalia",
    "name_en": "Somalia",
    "min_code": "453",
    "at_code": "Z345",
    "unsd_m49_code": "706",
    "iso_code": "SO",
    "iso3_code": "SOM"
  },
  {
    "type": "S",
    "continent_code": 2,
    "continent_name": "Africa",
    "area_code": 24,
    "area_name": "Africa centro meridionale",
    "istat_code": 454,
    "name": "Sudafrica",
    "name_en": "South Africa",
    "min_code": "454",
    "at_code": "Z347",
    "unsd_m49_code": "710",
    "iso_code": "ZA",
    "iso3_code": "ZAF"
  },
  {
    "type": "S",
    "continent_code": 2,
    "continent_name": "Africa",
    "area_code": 21,
    "area_name": "Africa settentrionale",
    "istat_code": 455,
    "name": "Sudan",
    "name_en": "Sudan",
    "min_code": "455",
    "at_code": "Z348",
    "unsd_m49_code": "729",
    "iso_code": "SD",
    "iso3_code": "SDN"
  },
  {
    "type": "S",
    "continent_code": 2,
    "continent_name": "Africa",
    "area_code": 24,
    "area_name": "Africa centro meridionale",
    "istat_code": 456,
    "name": "Eswatini",
    "name_en": "Eswatini",
    "min_code": "456",
    "at_code": "Z349",
    "unsd_m49_code": "748",
    "iso_code": "SZ",
    "iso3_code": "SWZ"
  },
  {
    "type": "S",
    "continent_code": 2,
    "continent_name": "Africa",
    "area_code": 23,
    "area_name": "Africa orientale",
    "istat_code": 457,
    "name": "Tanzania",
    "name_en": "Tanzania",
    "min_code": "457",
    "at_code": "Z357",
    "unsd_m49_code": "834",
    "iso_code": "TZ",
    "iso3_code": "TZA"
  },
  {
    "type": "S",
    "continent_code": 2,
    "continent_name": "Africa",
    "area_code": 22,
    "area_name": "Africa occidentale",
    "istat_code": 458,
    "name": "Togo",
    "name_en": "Togo",
    "min_code": "458",
    "at_code": "Z351",
    "unsd_m49_code": "768",
    "iso_code": "TG",
    "iso3_code": "TGO"
  },
  {
    "type": "S",
    "continent_code": 2,
    "continent_name": "Africa",
    "area_code": 21,
    "area_name": "Africa settentrionale",
    "istat_code": 460,
    "name": "Tunisia",
    "name_en": "Tunisia",
    "min_code": "460",
    "at_code": "Z352",
    "unsd_m49_code": "788",
    "iso_code": "TN",
    "iso3_code": "TUN"
  },
  {
    "type": "S",
    "continent_code": 2,
    "continent_name": "Africa",
    "area_code": 23,
    "area_name": "Africa orientale",
    "istat_code": 461,
    "name": "Uganda",
    "name_en": "Uganda",
    "min_code": "461",
    "at_code": "Z353",
    "unsd_m49_code": "800",
    "iso_code": "UG",
    "iso3_code": "UGA"
  },
  {
    "type": "S",
    "continent_code": 2,
    "continent_name": "Africa",
    "area_code": 24,
    "area_name": "Africa centro meridionale",
    "istat_code": 463,
    "name": "Repubblica Democratica del Congo",
    "name_en": "Democratic Republic of the Congo",
    "min_code": "463",
    "at_code": "Z312",
    "unsd_m49_code": "180",
    "iso_code": "CD",
    "iso3_code": "COD"
  },
  {
    "type": "S",
    "continent_code": 2,
    "continent_name": "Africa",
    "area_code": 23,
    "area_name": "Africa orientale",
    "istat_code": 464,
    "name": "Zambia",
    "name_en": "Zambia",
    "min_code": "464",
    "at_code": "Z355",
    "unsd_m49_code": "894",
    "iso_code": "ZM",
    "iso3_code": "ZMB"
  },
  {
    "type": "S",
    "continent_code": 2,
    "continent_name": "Africa",
    "area_code": 23,
    "area_name": "Africa orientale",
    "istat_code": 465,
    "name": "Zimbabwe",
    "name_en": "Zimbabwe",
    "min_code": "465",
    "at_code": "Z337",
    "unsd_m49_code": "716",
    "iso_code": "ZW",
    "iso3_code": "ZWE"
  },
  {
    "type": "S",
    "continent_code": 2,
    "continent_name": "Africa",
    "area_code": 23,
    "area_name": "Africa orientale",
    "istat_code": 466,
    "name": "Eritrea",
    "name_en": "Eritrea",
    "min_code": "466",
    "at_code": "Z368",
    "unsd_m49_code": "232",
    "iso_code": "ER",
    "iso3_code": "ERI"
  },
  {
    "type": "S",
    "continent_code": 2,
    "continent_name": "Africa",
    "area_code": 21,
    "area_name": "Africa settentrionale",
    "istat_code": 467,
    "name": "Sud Sudan",
    "name_en": "South Sudan",
    "min_code": "467",
    "at_code": "Z907",
    "unsd_m49_code": "728",
    "iso_code": "SS",
    "iso3_code": "SSD"
  },
  {
    "type": "S",
    "continent_code": 4,
    "continent_name": "America",
    "area_code": 42,
    "area_name": "America centro meridionale",
    "istat_code": 503,
    "name": "Antigua e Barbuda",
    "name_en": "Antigua and Barbuda",
    "min_code": "503",
    "at_code": "Z532",
    "unsd_m49_code": "028",
    "iso_code": "AG",
    "iso3_code": "ATG"
  },
  {
    "type": "S",
    "continent_code": 4,
    "continent_name": "America",
    "area_code": 42,
    "area_name": "America centro meridionale",
    "istat_code": 505,
    "name": "Bahamas",
    "name_en": "Bahamas",
    "min_code": "505",
    "at_code": "Z502",
    "unsd_m49_code": "044",
    "iso_code": "BS",
    "iso3_code": "BHS"
  },
  {
    "type": "S",
    "continent_code": 4,
    "continent_name": "America",
    "area_code": 42,
    "area_name": "America centro meridionale",
    "istat_code": 506,
    "name": "Barbados",
    "name_en": "Barbados",
    "min_code": "506",
    "at_code": "Z522",
    "unsd_m49_code": "052",
    "iso_code": "BB",
    "iso3_code": "BRB"
  },
  {
    "type": "S",
    "continent_code": 4,
    "continent_name": "America",
    "area_code": 42,
    "area_name": "America centro meridionale",
    "istat_code": 507,
    "name": "Belize",
    "name_en": "Belize",
    "min_code": "507",
    "at_code": "Z512",
    "unsd_m49_code": "084",
    "iso_code": "BZ",
    "iso3_code": "BLZ"
  },
  {
    "type": "S",
    "continent_code": 4,
    "continent_name": "America",
    "area_code": 41,
    "area_name": "America settentrionale",
    "istat_code": 509,
    "name": "Canada",
    "name_en": "Canada",
    "min_code": "509",
    "at_code": "Z401",
    "unsd_m49_code": "124",
    "iso_code": "CA",
    "iso3_code": "CAN"
  },
  {
    "type": "S",
    "continent_code": 4,
    "continent_name": "America",
    "area_code": 42,
    "area_name": "America centro meridionale",
    "istat_code": 513,
    "name": "Costa Rica",
    "name_en": "Costa Rica",
    "min_code": "513",
    "at_code": "Z503",
    "unsd_m49_code": "188",
    "iso_code": "CR",
    "iso3_code": "CRI"
  },
  {
    "type": "S",
    "continent_code": 4,
    "continent_name": "America",
    "area_code": 42,
    "area_name": "America centro meridionale",
    "istat_code": 514,
    "name": "Cuba",
    "name_en": "Cuba",
    "min_code": "514",
    "at_code": "Z504",
    "unsd_m49_code": "192",
    "iso_code": "CU",
    "iso3_code": "CUB"
  },
  {
    "type": "S",
    "continent_code": 4,
    "continent_name": "America",
    "area_code": 42,
    "area_name": "America centro meridionale",
    "istat_code": 515,
    "name": "Dominica",
    "name_en": "Dominica",
    "min_code": "515",
    "at_code": "Z526",
    "unsd_m49_code": "212",
    "iso_code": "DM",
    "iso3_code": "DMA"
  },
  {
    "type": "S",
    "continent_code": 4,
    "continent_name": "America",
    "area_code": 42,
    "area_name": "America centro meridionale",
    "istat_code": 516,
    "name": "Repubblica Dominicana",
    "name_en": "Dominican Republic",
    "min_code": "516",
    "at_code": "Z505",
    "unsd_m49_code": "214",
    "iso_code": "DO",
    "iso3_code": "DOM"
  },
  {
    "type": "S",
    "continent_code": 4,
    "continent_name": "America",
    "area_code": 42,
    "area_name": "America centro meridionale",
    "istat_code": 517,
    "name": "El Salvador",
    "name_en": "El Salvador",
    "min_code": "517",
    "at_code": "Z506",
    "unsd_m49_code": "222",
    "iso_code": "SV",
    "iso3_code": "SLV"
  },
  {
    "type": "S",
    "continent_code": 4,
    "continent_name": "America",
    "area_code": 42,
    "area_name": "America centro meridionale",
    "istat_code": 518,
    "name": "Giamaica",
    "name_en": "Jamaica",
    "min_code": "518",
    "at_code": "Z507",
    "unsd_m49_code": "388",
    "iso_code": "JM",
    "iso3_code": "JAM"
  },
  {
    "type": "S",
    "continent_code": 4,
    "continent_name": "America",
    "area_code": 42,
    "area_name": "America centro meridionale",
    "istat_code": 519,
    "name": "Grenada",
    "name_en": "Grenada",
    "min_code": "519",
    "at_code": "Z524",
    "unsd_m49_code": "308",
    "iso_code": "GD",
    "iso3_code": "GRD"
  },
  {
    "type": "S",
    "continent_code": 4,
    "continent_name": "America",
    "area_code": 42,
    "area_name": "America centro meridionale",
    "istat_code": 523,
    "name": "Guatemala",
    "name_en": "Guatemala",
    "min_code": "523",
    "at_code": "Z509",
    "unsd_m49_code": "320",
    "iso_code": "GT",
    "iso3_code": "GTM"
  },
  {
    "type": "S",
    "continent_code": 4,
    "continent_name": "America",
    "area_code": 42,
    "area_name": "America centro meridionale",
    "istat_code": 524,
    "name": "Haiti",
    "name_en": "Haiti",
    "min_code": "524",
    "at_code": "Z510",
    "unsd_m49_code": "332",
    "iso_code": "HT",
    "iso3_code": "HTI"
  },
  {
    "type": "S",
    "continent_code": 4,
    "continent_name": "America",
    "area_code": 42,
    "area_name": "America centro meridionale",
    "istat_code": 525,
    "name": "Honduras",
    "name_en": "Honduras",
    "min_code": "525",
    "at_code": "Z511",
    "unsd_m49_code": "340",
    "iso_code": "HN",
    "iso3_code": "HND"
  },
  {
    "type": "S",
    "continent_code": 4,
    "continent_name": "America",
    "area_code": 42,
    "area_name": "America centro meridionale",
    "istat_code": 527,
    "name": "Messico",
    "name_en": "Mexico",
    "min_code": "527",
    "at_code": "Z514",
    "unsd_m49_code": "484",
    "iso_code": "MX",
    "iso3_code": "MEX"
  },
  {
    "type": "S",
    "continent_code": 4,
    "continent_name": "America",
    "area_code": 42,
    "area_name": "America centro meridionale",
    "istat_code": 529,
    "name": "Nicaragua",
    "name_en": "Nicaragua",
    "min_code": "529",
    "at_code": "Z515",
    "unsd_m49_code": "558",
    "iso_code": "NI",
    "iso3_code": "NIC"
  },
  {
    "type": "S",
    "continent_code": 4,
    "continent_name": "America",
    "area_code": 42,
    "area_name": "America centro meridionale",
    "istat_code": 530,
    "name": "Panama",
    "name_en": "Panama",
    "min_code": "530",
    "at_code": "Z516",
    "unsd_m49_code": "591",
    "iso_code": "PA",
    "iso3_code": "PAN"
  },
  {
    "type": "S",
    "continent_code": 4,
    "continent_name": "America",
    "area_code": 42,
    "area_name": "America centro meridionale",
    "istat_code": 532,
    "name": "Santa Lucia",
    "name_en": "Saint Lucia",
    "min_code": "532",
    "at_code": "Z527",
    "unsd_m49_code": "662",
    "iso_code": "LC",
    "iso3_code": "LCA"
  },
  {
    "type": "S",
    "continent_code": 4,
    "continent_name": "America",
    "area_code": 42,
    "area_name": "America centro meridionale",
    "istat_code": 533,
    "name": "Saint Vincent e Grenadine",
    "name_en": "Saint Vincent and the Grenadines",
    "min_code": "533",
    "at_code": "Z528",
    "unsd_m49_code": "670",
    "iso_code": "VC",
    "iso3_code": "VCT"
  },
  {
    "type": "S",
    "continent_code": 4,
    "continent_name": "America",
    "area_code": 42,
    "area_name": "America centro meridionale",
    "istat_code": 534,
    "name": "Saint Kitts e Nevis",
    "name_en": "Saint Kitts and Nevis",
    "min_code": "534",
    "at_code": "Z533",
    "unsd_m49_code": "659",
    "iso_code": "KN",
    "iso3_code": "KNA"
  },
  {
    "type": "S",
    "continent_code": 4,
    "continent_name": "America",
    "area_code": 41,
    "area_name": "America settentrionale",
    "istat_code": 536,
    "name": "Stati Uniti d'America",
    "name_en": "United States of America",
    "min_code": "536",
    "at_code": "Z404",
    "unsd_m49_code": "840",
    "iso_code": "US",
    "iso3_code": "USA"
  },
  {
    "type": "S",
    "continent_code": 4,
    "continent_name": "America",
    "area_code": 42,
    "area_name": "America centro meridionale",
    "istat_code": 602,
    "name": "Argentina",
    "name_en": "Argentina",
    "min_code": "602",
    "at_code": "Z600",
    "unsd_m49_code": "032",
    "iso_code": "AR",
    "iso3_code": "ARG"
  },
  {
    "type": "S",
    "continent_code": 4,
    "continent_name": "America",
    "area_code": 42,
    "area_name": "America centro meridionale",
    "istat_code": 604,
    "name": "Bolivia",
    "name_en": "Bolivia",
    "min_code": "604",
    "at_code": "Z601",
    "unsd_m49_code": "068",
    "iso_code": "BO",
    "iso3_code": "BOL"
  },
  {
    "type": "S",
    "continent_code": 4,
    "continent_name": "America",
    "area_code": 42,
    "area_name": "America centro meridionale",
    "istat_code": 605,
    "name": "Brasile",
    "name_en": "Brazil",
    "min_code": "605",
    "at_code": "Z602",
    "unsd_m49_code": "076",
    "iso_code": "BR",
    "iso3_code": "BRA"
  },
  {
    "type": "S",
    "continent_code": 4,
    "continent_name": "America",
    "area_code": 42,
    "area_name": "America centro meridionale",
    "istat_code": 606,
    "name": "Cile",
    "name_en": "Chile",
    "min_code": "606",
    "at_code": "Z603",
    "unsd_m49_code": "152",
    "iso_code": "CL",
    "iso3_code": "CHL"
  },
  {
    "type": "S",
    "continent_code": 4,
    "continent_name": "America",
    "area_code": 42,
    "area_name": "America centro meridionale",
    "istat_code": 608,
    "name": "Colombia",
    "name_en": "Colombia",
    "min_code": "608",
    "at_code": "Z604",
    "unsd_m49_code": "170",
    "iso_code": "CO",
    "iso3_code": "COL"
  },
  {
    "type": "S",
    "continent_code": 4,
    "continent_name": "America",
    "area_code": 42,
    "area_name": "America centro meridionale",
    "istat_code": 609,
    "name": "Ecuador",
    "name_en": "Ecuador",
    "min_code": "609",
    "at_code": "Z605",
    "unsd_m49_code": "218",
    "iso_code": "EC",
    "iso3_code": "ECU"
  },
  {
    "type": "S",
    "continent_code": 4,
    "continent_name": "America",
    "area_code": 42,
    "area_name": "America centro meridionale",
    "istat_code": 612,
    "name": "Guyana",
    "name_en": "Guyana",
    "min_code": "612",
    "at_code": "Z606",
    "unsd_m49_code": "328",
    "iso_code": "GY",
    "iso3_code": "GUY"
  },
  {
    "type": "S",
    "continent_code": 4,
    "continent_name": "America",
    "area_code": 42,
    "area_name": "America centro meridionale",
    "istat_code": 614,
    "name": "Paraguay",
    "name_en": "Paraguay",
    "min_code": "614",
    "at_code": "Z610",
    "unsd_m49_code": "600",
    "iso_code": "PY",
    "iso3_code": "PRY"
  },
  {
    "type": "S",
    "continent_code": 4,
    "continent_name": "America",
    "area_code": 42,
    "area_name": "America centro meridionale",
    "istat_code": 615,
    "name": "Perù",
    "name_en": "Peru",
    "min_code": "615",
    "at_code": "Z611",
    "unsd_m49_code": "604",
    "iso_code": "PE",
    "iso3_code": "PER"
  },
  {
    "type": "S",
    "continent_code": 4,
    "continent_name": "America",
    "area_code": 42,
    "area_name": "America centro meridionale",
    "istat_code": 616,
    "name": "Suriname",
    "name_en": "Suriname",
    "min_code": "616",
    "at_code": "Z608",
    "unsd_m49_code": "740",
    "iso_code": "SR",
    "iso3_code": "SUR"
  },
  {
    "type": "S",
    "continent_code": 4,
    "continent_name": "America",
    "area_code": 42,
    "area_name": "America centro meridionale",
    "istat_code": 617,
    "name": "Trinidad e Tobago",
    "name_en": "Trinidad and Tobago",
    "min_code": "617",
    "at_code": "Z612",
    "unsd_m49_code": "780",
    "iso_code": "TT",
    "iso3_code": "TTO"
  },
  {
    "type": "S",
    "continent_code": 4,
    "continent_name": "America",
    "area_code": 42,
    "area_name": "America centro meridionale",
    "istat_code": 618,
    "name": "Uruguay",
    "name_en": "Uruguay",
    "min_code": "618",
    "at_code": "Z613",
    "unsd_m49_code": "858",
    "iso_code": "UY",
    "iso3_code": "URY"
  },
  {
    "type": "S",
    "continent_code": 4,
    "continent_name": "America",
    "area_code": 42,
    "area_name": "America centro meridionale",
    "istat_code": 619,
    "name": "Venezuela",
    "name_en": "Venezuela",
    "min_code": "619",
    "at_code": "Z614",
    "unsd_m49_code": "862",
    "iso_code": "VE",
    "iso3_code": "VEN"
  },
  {
    "type": "S",
    "continent_code": 5,
    "continent_name": "Oceania",
    "area_code": 50,
    "area_name": "Oceania",
    "istat_code": 701,
    "name": "Australia",
    "name_en": "Australia",
    "min_code": "701",
    "at_code": "Z700",
    "unsd_m49_code": "036",
    "iso_code": "AU",
    "iso3_code": "AUS"
  },
  {
    "type": "S",
    "continent_code": 5,
    "continent_name": "Oceania",
    "area_code": 50,
    "area_name": "Oceania",
    "istat_code": 703,
    "name": "Figi",
    "name_en": "Fiji",
    "min_code": "703",
    "at_code": "Z704",
    "unsd_m49_code": "242",
    "iso_code": "FJ",
    "iso3_code": "FJI"
  },
  {
    "type": "S",
    "continent_code": 5,
    "continent_name": "Oceania",
    "area_code": 50,
    "area_name": "Oceania",
    "istat_code": 708,
    "name": "Kiribati",
    "name_en": "Kiribati",
    "min_code": "708",
    "at_code": "Z731",
    "unsd_m49_code": "296",
    "iso_code": "KI",
    "iso3_code": "KIR"
  },
  {
    "type": "S",
    "continent_code": 5,
    "continent_name": "Oceania",
    "area_code": 50,
    "area_name": "Oceania",
    "istat_code": 712,
    "name": "Isole Marshall",
    "name_en": "Marshall Islands",
    "min_code": "712",
    "at_code": "Z711",
    "unsd_m49_code": "584",
    "iso_code": "MH",
    "iso3_code": "MHL"
  },
  {
    "type": "S",
    "continent_code": 5,
    "continent_name": "Oceania",
    "area_code": 50,
    "area_name": "Oceania",
    "istat_code": 713,
    "name": "Stati Federati di Micronesia",
    "name_en": "Federated States of Micronesia",
    "min_code": "713",
    "at_code": "Z735",
    "unsd_m49_code": "583",
    "iso_code": "FM",
    "iso3_code": "FSM"
  },
  {
    "type": "S",
    "continent_code": 5,
    "continent_name": "Oceania",
    "area_code": 50,
    "area_name": "Oceania",
    "istat_code": 715,
    "name": "Nauru",
    "name_en": "Nauru",
    "min_code": "715",
    "at_code": "Z713",
    "unsd_m49_code": "520",
    "iso_code": "NR",
    "iso3_code": "NRU"
  },
  {
    "type": "S",
    "continent_code": 5,
    "continent_name": "Oceania",
    "area_code": 50,
    "area_name": "Oceania",
    "istat_code": 719,
    "name": "Nuova Zelanda",
    "name_en": "New Zealand",
    "min_code": "719",
    "at_code": "Z719",
    "unsd_m49_code": "554",
    "iso_code": "NZ",
    "iso3_code": "NZL"
  },
  {
    "type": "S",
    "continent_code": 5,
    "continent_name": "Oceania",
    "area_code": 50,
    "area_name": "Oceania",
    "istat_code": 720,
    "name": "Palau",
    "name_en": "Palau",
    "min_code": "720",
    "at_code": "Z734",
    "unsd_m49_code": "585",
    "iso_code": "PW",
    "iso3_code": "PLW"
  },
  {
    "type": "S",
    "continent_code": 5,
    "continent_name": "Oceania",
    "area_code": 50,
    "area_name": "Oceania",
    "istat_code": 721,
    "name": "Papua Nuova Guinea",
    "name_en": "Papua New Guinea",
    "min_code": "721",
    "at_code": "Z730",
    "unsd_m49_code": "598",
    "iso_code": "PG",
    "iso3_code": "PNG"
  },
  {
    "type": "S",
    "continent_code": 5,
    "continent_name": "Oceania",
    "area_code": 50,
    "area_name": "Oceania",
    "istat_code": 725,
    "name": "Isole Salomone",
    "name_en": "Solomon Islands",
    "min_code": "725",
    "at_code": "Z724",
    "unsd_m49_code": "090",
    "iso_code": "SB",
    "iso3_code": "SLB"
  },
  {
    "type": "S",
    "continent_code": 5,
    "continent_name": "Oceania",
    "area_code": 50,
    "area_name": "Oceania",
    "istat_code": 727,
    "name": "Samoa",
    "name_en": "Samoa",
    "min_code": "727",
    "at_code": "Z726",
    "unsd_m49_code": "882",
    "iso_code": "WS",
    "iso3_code": "WSM"
  },
  {
    "type": "S",
    "continent_code": 5,
    "continent_name": "Oceania",
    "area_code": 50,
    "area_name": "Oceania",
    "istat_code": 730,
    "name": "Tonga",
    "name_en": "Tonga",
    "min_code": "730",
    "at_code": "Z728",
    "unsd_m49_code": "776",
    "iso_code": "TO",
    "iso3_code": "TON"
  },
  {
    "type": "S",
    "continent_code": 5,
    "continent_name": "Oceania",
    "area_code": 50,
    "area_name": "Oceania",
    "istat_code": 731,
    "name": "Tuvalu",
    "name_en": "Tuvalu",
    "min_code": "731",
    "at_code": "Z732",
    "unsd_m49_code": "798",
    "iso_code": "TV",
    "iso3_code": "TUV"
  },
  {
    "type": "S",
    "continent_code": 5,
    "continent_name": "Oceania",
    "area_code": 50,
    "area_name": "Oceania",
    "istat_code": 732,
    "name": "Vanuatu",
    "name_en": "Vanuatu",
    "min_code": "732",
    "at_code": "Z733",
    "unsd_m49_code": "548",
    "iso_code": "VU",
    "iso3_code": "VUT"
  },
  {
    "type": "T",
    "continent_code": 5,
    "continent_name": "Oceania",
    "area_code": 50,
    "area_name": "Oceania",
    "istat_code": 902,
    "name": "Nuova Caledonia",
    "name_en": "New Caledonia",
    "min_code": "718",
    "at_code": "Z716",
    "unsd_m49_code": "n.d.",
    "iso_code": "NC",
    "iso3_code": "NCL",
    "istat_parent_code": 215,
    "iso3_parent_code": "FRA"
  },
  {
    "type": "T",
    "continent_code": 4,
    "continent_name": "America",
    "area_code": 42,
    "area_name": "America centro meridionale",
    "istat_code": 904,
    "name": "Saint-Martin (FR)",
    "name_en": "Saint Martin (FR)",
    "min_code": "542",
    "at_code": "n.d.",
    "unsd_m49_code": "n.d.",
    "iso_code": "MF",
    "iso3_code": "MAF",
    "istat_parent_code": 215,
    "iso3_parent_code": "FRA"
  },
  {
    "type": "T",
    "continent_code": 2,
    "continent_name": "Africa",
    "area_code": 21,
    "area_name": "Africa settentrionale",
    "istat_code": 905,
    "name": "Sahara occidentale",
    "name_en": "Western Sahara",
    "min_code": "n.d.",
    "at_code": "Z339",
    "unsd_m49_code": "n.d.",
    "iso_code": "EH",
    "iso3_code": "ESH"
  },
  {
    "type": "T",
    "continent_code": 4,
    "continent_name": "America",
    "area_code": 42,
    "area_name": "America centro meridionale",
    "istat_code": 906,
    "name": "Saint-Barthélemy",
    "name_en": "Saint Barthelemy",
    "min_code": "541",
    "at_code": "n.d.",
    "unsd_m49_code": "n.d.",
    "iso_code": "BL",
    "iso3_code": "BLM",
    "istat_parent_code": 215,
    "iso3_parent_code": "FRA"
  },
  {
    "type": "T",
    "continent_code": 4,
    "continent_name": "America",
    "area_code": 41,
    "area_name": "America settentrionale",
    "istat_code": 908,
    "name": "Bermuda",
    "name_en": "Bermuda",
    "min_code": "508",
    "at_code": "Z400",
    "unsd_m49_code": "n.d.",
    "iso_code": "BM",
    "iso3_code": "BMU",
    "istat_parent_code": 219,
    "iso3_parent_code": "GBR"
  },
  {
    "type": "T",
    "continent_code": 5,
    "continent_name": "Oceania",
    "area_code": 50,
    "area_name": "Oceania",
    "istat_code": 909,
    "name": "Isole Cook (NZ)",
    "name_en": "Cook Islands (NZ)",
    "min_code": "702",
    "at_code": "Z703",
    "unsd_m49_code": "n.d.",
    "iso_code": "CK",
    "iso3_code": "COK",
    "istat_parent_code": 719,
    "iso3_parent_code": "NZL"
  },
  {
    "type": "T",
    "continent_code": 1,
    "continent_name": "Europa",
    "area_code": 13,
    "area_name": "Altri Paesi europei",
    "istat_code": 910,
    "name": "Gibilterra",
    "name_en": "Gibraltar",
    "min_code": "218",
    "at_code": "Z113",
    "unsd_m49_code": "n.d.",
    "iso_code": "GI",
    "iso3_code": "GIB",
    "istat_parent_code": 219,
    "iso3_parent_code": "GBR"
  },
  {
    "type": "T",
    "continent_code": 4,
    "continent_name": "America",
    "area_code": 42,
    "area_name": "America centro meridionale",
    "istat_code": 911,
    "name": "Isole Cayman",
    "name_en": "Cayman Islands",
    "min_code": "511",
    "at_code": "Z530",
    "unsd_m49_code": "n.d.",
    "iso_code": "KY",
    "iso3_code": "CYM",
    "istat_parent_code": 219,
    "iso3_parent_code": "GBR"
  },
  {
    "type": "T",
    "continent_code": 4,
    "continent_name": "America",
    "area_code": 42,
    "area_name": "America centro meridionale",
    "istat_code": 917,
    "name": "Anguilla",
    "name_en": "Anguilla",
    "min_code": "502",
    "at_code": "Z529",
    "unsd_m49_code": "n.d.",
    "iso_code": "AI",
    "iso3_code": "AIA",
    "istat_parent_code": 219,
    "iso3_parent_code": "GBR"
  },
  {
    "type": "T",
    "continent_code": 5,
    "continent_name": "Oceania",
    "area_code": 50,
    "area_name": "Oceania",
    "istat_code": 920,
    "name": "Polinesia francese",
    "name_en": "French Polynesia",
    "min_code": "724",
    "at_code": "Z723",
    "unsd_m49_code": "n.d.",
    "iso_code": "PF",
    "iso3_code": "PYF",
    "istat_parent_code": 215,
    "iso3_parent_code": "FRA"
  },
  {
    "type": "T",
    "continent_code": 1,
    "continent_name": "Europa",
    "area_code": 13,
    "area_name": "Altri Paesi europei",
    "istat_code": 924,
    "name": "Isole Fær Øer",
    "name_en": "Faroe Islands",
    "min_code": "213",
    "at_code": "Z108",
    "unsd_m49_code": "n.d.",
    "iso_code": "FO",
    "iso3_code": "FRO",
    "istat_parent_code": 212,
    "iso3_parent_code": "DNK"
  },
  {
    "type": "T",
    "continent_code": 1,
    "continent_name": "Europa",
    "area_code": 13,
    "area_name": "Altri Paesi europei",
    "istat_code": 925,
    "name": "Jersey",
    "name_en": "Jersey",
    "min_code": "273",
    "at_code": "n.d.",
    "unsd_m49_code": "n.d.",
    "iso_code": "JE",
    "iso3_code": "JEY",
    "istat_parent_code": 219,
    "iso3_parent_code": "GBR"
  },
  {
    "type": "T",
    "continent_code": 4,
    "continent_name": "America",
    "area_code": 42,
    "area_name": "America centro meridionale",
    "istat_code": 926,
    "name": "Aruba",
    "name_en": "Aruba",
    "min_code": "603",
    "at_code": "Z501",
    "unsd_m49_code": "n.d.",
    "iso_code": "AW",
    "iso3_code": "ABW",
    "istat_parent_code": 232,
    "iso3_parent_code": "NLD"
  },
  {
    "type": "T",
    "continent_code": 4,
    "continent_name": "America",
    "area_code": 42,
    "area_name": "America centro meridionale",
    "istat_code": 928,
    "name": "Sint Maarten (NL)",
    "name_en": "St Maarten (NL)",
    "min_code": "621",
    "at_code": "n.d.",
    "unsd_m49_code": "n.d.",
    "iso_code": "SX",
    "iso3_code": "SXM",
    "istat_parent_code": 232,
    "iso3_parent_code": "NLD"
  },
  {
    "type": "T",
    "continent_code": 4,
    "continent_name": "America",
    "area_code": 41,
    "area_name": "America settentrionale",
    "istat_code": 934,
    "name": "Groenlandia",
    "name_en": "Greenland",
    "min_code": "520",
    "at_code": "Z402",
    "unsd_m49_code": "n.d.",
    "iso_code": "GL",
    "iso3_code": "GRL",
    "istat_parent_code": 212,
    "iso3_parent_code": "DNK"
  },
  {
    "type": "T",
    "continent_code": 1,
    "continent_name": "Europa",
    "area_code": 13,
    "area_name": "Altri Paesi europei",
    "istat_code": 939,
    "name": "Sark",
    "name_en": "Sark",
    "min_code": "n.d.",
    "at_code": "n.d.",
    "unsd_m49_code": "n.d.",
    "iso_code": "n.d.",
    "iso3_code": "n.d.",
    "istat_parent_code": 219,
    "iso3_parent_code": "GBR"
  },
  {
    "type": "T",
    "continent_code": 1,
    "continent_name": "Europa",
    "area_code": 13,
    "area_name": "Altri Paesi europei",
    "istat_code": 940,
    "name": "Guernsey",
    "name_en": "Guernsey",
    "min_code": "274",
    "at_code": "n.d.",
    "unsd_m49_code": "n.d.",
    "iso_code": "GG",
    "iso3_code": "GGY",
    "istat_parent_code": 219,
    "iso3_parent_code": "GBR"
  },
  {
    "type": "T",
    "continent_code": 4,
    "continent_name": "America",
    "area_code": 42,
    "area_name": "America centro meridionale",
    "istat_code": 958,
    "name": "Isole Falkland (Malvine)",
    "name_en": "Falkland Islands (Malvinas)",
    "min_code": "610",
    "at_code": "Z609",
    "unsd_m49_code": "n.d.",
    "iso_code": "FK",
    "iso3_code": "FLK",
    "istat_parent_code": 219,
    "iso3_parent_code": "GBR"
  },
  {
    "type": "T",
    "continent_code": 1,
    "continent_name": "Europa",
    "area_code": 13,
    "area_name": "Altri Paesi europei",
    "istat_code": 959,
    "name": "Isola di Man",
    "name_en": "Isle of Man",
    "min_code": "228",
    "at_code": "Z122",
    "unsd_m49_code": "n.d.",
    "iso_code": "IM",
    "iso3_code": "IMN",
    "istat_parent_code": 219,
    "iso3_parent_code": "GBR"
  },
  {
    "type": "T",
    "continent_code": 4,
    "continent_name": "America",
    "area_code": 42,
    "area_name": "America centro meridionale",
    "istat_code": 964,
    "name": "Montserrat",
    "name_en": "Montserrat",
    "min_code": "528",
    "at_code": "Z531",
    "unsd_m49_code": "n.d.",
    "iso_code": "MS",
    "iso3_code": "MSR",
    "istat_parent_code": 219,
    "iso3_parent_code": "GBR"
  },
  {
    "type": "T",
    "continent_code": 4,
    "continent_name": "America",
    "area_code": 42,
    "area_name": "America centro meridionale",
    "istat_code": 966,
    "name": "Curaçao",
    "name_en": "Curaçao",
    "min_code": "620",
    "at_code": "n.d.",
    "unsd_m49_code": "n.d.",
    "iso_code": "CW",
    "iso3_code": "CUW",
    "istat_parent_code": 232,
    "iso3_parent_code": "NLD"
  },
  {
    "type": "T",
    "continent_code": 5,
    "continent_name": "Oceania",
    "area_code": 50,
    "area_name": "Oceania",
    "istat_code": 972,
    "name": "Isole Pitcairn",
    "name_en": "Pitcairn",
    "min_code": "723",
    "at_code": "Z722",
    "unsd_m49_code": "n.d.",
    "iso_code": "PN",
    "iso3_code": "PCN",
    "istat_parent_code": 219,
    "iso3_parent_code": "GBR"
  },
  {
    "type": "T",
    "continent_code": 4,
    "continent_name": "America",
    "area_code": 41,
    "area_name": "America settentrionale",
    "istat_code": 980,
    "name": "Saint Pierre e Miquelon",
    "name_en": "Saint Pierre and Miquelon",
    "min_code": "535",
    "at_code": "Z403",
    "unsd_m49_code": "n.d.",
    "iso_code": "PM",
    "iso3_code": "SPM",
    "istat_parent_code": 215,
    "iso3_parent_code": "FRA"
  },
  {
    "type": "T",
    "continent_code": 2,
    "continent_name": "Africa",
    "area_code": 24,
    "area_name": "Africa centro meridionale",
    "istat_code": 983,
    "name": "Sant'Elena",
    "name_en": "Saint Helena",
    "min_code": "447",
    "at_code": "Z340",
    "unsd_m49_code": "n.d.",
    "iso_code": "SH",
    "iso3_code": "SHN",
    "istat_parent_code": 219,
    "iso3_parent_code": "GBR"
  },
  {
    "type": "T",
    "continent_code": 5,
    "continent_name": "Oceania",
    "area_code": 50,
    "area_name": "Oceania",
    "istat_code": 988,
    "name": "Terre australi e antartiche francesi",
    "name_en": "French Southern Territories",
    "min_code": "806",
    "at_code": "n.d.",
    "unsd_m49_code": "n.d.",
    "iso_code": "TF",
    "iso3_code": "ATF",
    "istat_parent_code": 215,
    "iso3_parent_code": "FRA"
  },
  {
    "type": "T",
    "continent_code": 4,
    "continent_name": "America",
    "area_code": 42,
    "area_name": "America centro meridionale",
    "istat_code": 992,
    "name": "Isole Turks e Caicos",
    "name_en": "Turks and Caicos Islands",
    "min_code": "537",
    "at_code": "Z519",
    "unsd_m49_code": "n.d.",
    "iso_code": "TC",
    "iso3_code": "TCA",
    "istat_parent_code": 219,
    "iso3_parent_code": "GBR"
  },
  {
    "type": "T",
    "continent_code": 4,
    "continent_name": "America",
    "area_code": 42,
    "area_name": "America centro meridionale",
    "istat_code": 994,
    "name": "Isole Vergini britanniche",
    "name_en": "British Virgin Islands",
    "min_code": "539",
    "at_code": "Z525",
    "unsd_m49_code": "n.d.",
    "iso_code": "VG",
    "iso3_code": "VGB",
    "istat_parent_code": 219,
    "iso3_parent_code": "GBR"
  },
  {
    "type": "T",
    "continent_code": 5,
    "continent_name": "Oceania",
    "area_code": 50,
    "area_name": "Oceania",
    "istat_code": 997,
    "name": "Wallis e Futuna",
    "name_en": "Wallis and Futuna Islands",
    "min_code": "734",
    "at_code": "Z729",
    "unsd_m49_code": "n.d.",
    "iso_code": "WF",
    "iso3_code": "WLF",
    "istat_parent_code": 215,
    "iso3_parent_code": "FRA"
  }
]